start=new Date('2023-03-28T00:00:00.000Z').valueOf();
sats=[{"SEMIMAJOR_AXIS":"6925.419","RA_OF_ASC_NODE":"35.0418","SITE":"AFETR","RCS_SIZE":"LARGE","INCLINATION":"53.0562","CENTER_NAME":"EARTH","MEAN_ANOMALY":"284.8825","COUNTRY_CODE":"US","ELEMENT_SET_NO":"999","ECCENTRICITY":"0.00005070","MEAN_MOTION_DOT":"0.00006869","ARG_OF_PERICENTER":"75.2220","LAUNCH_DATE":"2020-06-13","MEAN_MOTION":"15.06376935","NORAD_CAT_ID":"45741","TIME_SYSTEM":"UTC","FILE":"3872915","EPOCH":"2023-03-27T21:23:16.058112","PERIAPSIS":"546.933","REV_AT_EPOCH":"15375","MEAN_MOTION_DDOT":"0.0000000000000","CLASSIFICATION_TYPE":"U","DECAY_DATE":null,"TLE_LINE2":"2 45741  53.0562  35.0418 0000507  75.2220 284.8825 15.06376935153758","EPHEMERIS_TYPE":"0","OBJECT_NAME":"STARLINK-1480","GP_ID":"228988735","MEAN_ELEMENT_THEORY":"SGP4","PERIOD":"95.594","APOAPSIS":"547.635","TLE_LINE1":"1 45741U 20038M   23086.89115808  .00006869  00000-0  47987-3 0  9990","OBJECT_ID":"2020-038M","OBJECT_TYPE":"PAYLOAD","BSTAR":"0.00047987000000","REF_FRAME":"TEME"},{"MEAN_MOTION_DOT":"0.00010021","ARG_OF_PERICENTER":"342.1441","COUNTRY_CODE":"US","MEAN_ANOMALY":"17.9518","ECCENTRICITY":"0.00008570","ELEMENT_SET_NO":"999","CENTER_NAME":"EARTH","RCS_SIZE":"LARGE","INCLINATION":"53.0555","SEMIMAJOR_AXIS":"6925.420","SITE":"AFETR","RA_OF_ASC_NODE":"35.0754","MEAN_MOTION_DDOT":"0.0000000000000","CLASSIFICATION_TYPE":"U","EPOCH":"2023-03-27T21:12:39.799008","PERIAPSIS":"546.692","REV_AT_EPOCH":"15373","NORAD_CAT_ID":"45742","TIME_SYSTEM":"UTC","FILE":"3872915","MEAN_MOTION":"15.06376616","LAUNCH_DATE":"2020-06-13","MEAN_ELEMENT_THEORY":"SGP4","OBJECT_NAME":"STARLINK-1481","GP_ID":"228988985","EPHEMERIS_TYPE":"0","DECAY_DATE":null,"TLE_LINE2":"2 45742  53.0555  35.0754 0000857 342.1441  17.9518 15.06376616153731","REF_FRAME":"TEME","OBJECT_ID":"2020-038N","OBJECT_TYPE":"PAYLOAD","BSTAR":"0.00069112000000","TLE_LINE1":"1 45742U 20038N   23086.88379397  .00010021  00000-0  69112-3 0  9994","APOAPSIS":"547.879","PERIOD":"95.594"},{"NORAD_CAT_ID":"45743","TIME_SYSTEM":"UTC","FILE":"3872569","MEAN_MOTION":"15.06404590","LAUNCH_DATE":"2020-06-13","MEAN_MOTION_DDOT":"0.0000000000000","CLASSIFICATION_TYPE":"U","PERIAPSIS":"546.184","EPOCH":"2023-03-27T05:42:25.475904","REV_AT_EPOCH":"15364","CENTER_NAME":"EARTH","INCLINATION":"53.0544","RCS_SIZE":"LARGE","SEMIMAJOR_AXIS":"6925.334","SITE":"AFETR","RA_OF_ASC_NODE":"37.9015","MEAN_MOTION_DOT":"0.00006017","ARG_OF_PERICENTER":"117.8943","COUNTRY_CODE":"US","MEAN_ANOMALY":"242.2194","ECCENTRICITY":"0.00014660","ELEMENT_SET_NO":"999","PERIOD":"95.592","APOAPSIS":"548.215","REF_FRAME":"TEME","OBJECT_ID":"2020-038P","OBJECT_TYPE":"PAYLOAD","BSTAR":"0.00042246000000","TLE_LINE1":"1 45743U 20038P   23086.23779486  .00006017  00000-0  42246-3 0  9996","DECAY_DATE":null,"TLE_LINE2":"2 45743  53.0544  37.9015 0001466 117.8943 242.2194 15.06404590153648","MEAN_ELEMENT_THEORY":"SGP4","OBJECT_NAME":"STARLINK-1483","GP_ID":"228956029","EPHEMERIS_TYPE":"0"},{"PERIOD":"95.591","APOAPSIS":"548.087","TLE_LINE1":"1 45744U 20038Q   23086.27560080  .00023831  00000-0  16126-2 0  9999","REF_FRAME":"TEME","OBJECT_ID":"2020-038Q","OBJECT_TYPE":"PAYLOAD","BSTAR":"0.00161260000000","TLE_LINE2":"2 45744  53.0557  37.8064 0001338  86.4982 273.6160 15.06417209153651","DECAY_DATE":null,"OBJECT_NAME":"STARLINK-1500","GP_ID":"228956274","EPHEMERIS_TYPE":"0","MEAN_ELEMENT_THEORY":"SGP4","MEAN_MOTION":"15.06417209","LAUNCH_DATE":"2020-06-13","FILE":"3872569","TIME_SYSTEM":"UTC","NORAD_CAT_ID":"45744","REV_AT_EPOCH":"15365","EPOCH":"2023-03-27T06:36:51.909120","PERIAPSIS":"546.234","CLASSIFICATION_TYPE":"U","MEAN_MOTION_DDOT":"0.0000000000000","SITE":"AFETR","RA_OF_ASC_NODE":"37.8064","SEMIMAJOR_AXIS":"6925.296","CENTER_NAME":"EARTH","INCLINATION":"53.0557","RCS_SIZE":"LARGE","ECCENTRICITY":"0.00013380","ELEMENT_SET_NO":"999","COUNTRY_CODE":"US","MEAN_ANOMALY":"273.6160","ARG_OF_PERICENTER":"86.4982","MEAN_MOTION_DOT":"0.00023831"},{"PERIOD":"95.596","APOAPSIS":"548.264","REF_FRAME":"TEME","OBJECT_TYPE":"PAYLOAD","BSTAR":"0.00056807000000","OBJECT_ID":"2020-038R","TLE_LINE1":"1 45745U 20038R   23086.86170387  .00008176  00000-0  56807-3 0  9998","DECAY_DATE":null,"TLE_LINE2":"2 45745  53.0545  35.1743 0001244  76.4430 283.6697 15.06338289153732","MEAN_ELEMENT_THEORY":"SGP4","GP_ID":"228989234","OBJECT_NAME":"STARLINK-1503","EPHEMERIS_TYPE":"0","NORAD_CAT_ID":"45745","TIME_SYSTEM":"UTC","FILE":"3872915","MEAN_MOTION":"15.06338289","LAUNCH_DATE":"2020-06-13","MEAN_MOTION_DDOT":"0.0000000000000","CLASSIFICATION_TYPE":"U","EPOCH":"2023-03-27T20:40:51.214368","PERIAPSIS":"546.541","REV_AT_EPOCH":"15373","CENTER_NAME":"EARTH","RCS_SIZE":"LARGE","INCLINATION":"53.0545","SEMIMAJOR_AXIS":"6925.538","SITE":"AFETR","RA_OF_ASC_NODE":"35.1743","MEAN_MOTION_DOT":"0.00008176","ARG_OF_PERICENTER":"76.4430","COUNTRY_CODE":"US","MEAN_ANOMALY":"283.6697","ECCENTRICITY":"0.00012440","ELEMENT_SET_NO":"999"},{"ELEMENT_SET_NO":"999","ECCENTRICITY":"0.00004860","MEAN_ANOMALY":"322.7978","COUNTRY_CODE":"US","ARG_OF_PERICENTER":"37.3045","MEAN_MOTION_DOT":"0.00017400","RA_OF_ASC_NODE":"35.1073","SITE":"AFETR","SEMIMAJOR_AXIS":"6925.383","INCLINATION":"53.0561","RCS_SIZE":"LARGE","CENTER_NAME":"EARTH","REV_AT_EPOCH":"15373","PERIAPSIS":"546.911","EPOCH":"2023-03-27T21:02:02.718240","CLASSIFICATION_TYPE":"U","MEAN_MOTION_DDOT":"0.0000000000000","LAUNCH_DATE":"2020-06-13","MEAN_MOTION":"15.06388749","FILE":"3872915","TIME_SYSTEM":"UTC","NORAD_CAT_ID":"45746","EPHEMERIS_TYPE":"0","OBJECT_NAME":"STARLINK-1504","GP_ID":"228989484","MEAN_ELEMENT_THEORY":"SGP4","TLE_LINE2":"2 45746  53.0561  35.1073 0000486  37.3045 322.7978 15.06388749153735","DECAY_DATE":null,"TLE_LINE1":"1 45746U 20038S   23086.87642035  .00017400  00000-0  11845-2 0  9996","OBJECT_TYPE":"PAYLOAD","OBJECT_ID":"2020-038S","BSTAR":"0.00118450000000","REF_FRAME":"TEME","APOAPSIS":"547.585","PERIOD":"95.593"},{"EPOCH":"2023-03-27T21:07:21.357984","PERIAPSIS":"546.191","REV_AT_EPOCH":"15374","MEAN_MOTION_DDOT":"0.0000000000000","CLASSIFICATION_TYPE":"U","MEAN_MOTION":"15.06397318","LAUNCH_DATE":"2020-06-13","NORAD_CAT_ID":"45747","TIME_SYSTEM":"UTC","FILE":"3872915","COUNTRY_CODE":"US","MEAN_ANOMALY":"249.6345","ECCENTRICITY":"0.00014890","ELEMENT_SET_NO":"999","MEAN_MOTION_DOT":"0.00021261","ARG_OF_PERICENTER":"110.4804","SEMIMAJOR_AXIS":"6925.357","SITE":"AFETR","RA_OF_ASC_NODE":"35.0906","CENTER_NAME":"EARTH","RCS_SIZE":"LARGE","INCLINATION":"53.0550","TLE_LINE1":"1 45747U 20038T   23086.88010831  .00021261  00000-0  14420-2 0  9993","REF_FRAME":"TEME","OBJECT_TYPE":"PAYLOAD","OBJECT_ID":"2020-038T","BSTAR":"0.00144200000000","PERIOD":"95.592","APOAPSIS":"548.253","GP_ID":"228989735","OBJECT_NAME":"STARLINK-1506","EPHEMERIS_TYPE":"0","MEAN_ELEMENT_THEORY":"SGP4","DECAY_DATE":null,"TLE_LINE2":"2 45747  53.0550  35.0906 0001489 110.4804 249.6345 15.06397318153746"},{"MEAN_ELEMENT_THEORY":"SGP4","EPHEMERIS_TYPE":"0","GP_ID":"228990485","OBJECT_NAME":"STARLINK-1507","DECAY_DATE":null,"TLE_LINE2":"2 45748  53.0567  35.1462 0001451  78.6864 281.4288 15.06404477153737","OBJECT_ID":"2020-038U","OBJECT_TYPE":"PAYLOAD","BSTAR":"0.00165730000000","REF_FRAME":"TEME","TLE_LINE1":"1 45748U 20038U   23086.86810651  .00024493  00000-0  16573-2 0  9991","PERIOD":"95.592","APOAPSIS":"548.205","MEAN_MOTION_DOT":"0.00024493","ARG_OF_PERICENTER":"78.6864","MEAN_ANOMALY":"281.4288","COUNTRY_CODE":"US","ELEMENT_SET_NO":"999","ECCENTRICITY":"0.00014510","RCS_SIZE":"LARGE","INCLINATION":"53.0567","CENTER_NAME":"EARTH","SEMIMAJOR_AXIS":"6925.335","RA_OF_ASC_NODE":"35.1462","SITE":"AFETR","MEAN_MOTION_DDOT":"0.0000000000000","CLASSIFICATION_TYPE":"U","PERIAPSIS":"546.195","EPOCH":"2023-03-27T20:50:04.402464","REV_AT_EPOCH":"15373","TIME_SYSTEM":"UTC","NORAD_CAT_ID":"45748","FILE":"3872915","LAUNCH_DATE":"2020-06-13","MEAN_MOTION":"15.06404477"},{"EPOCH":"2023-03-27T18:20:08.123424","PERIAPSIS":"546.484","REV_AT_EPOCH":"15401","MEAN_MOTION_DDOT":"0.0000000000000","CLASSIFICATION_TYPE":"U","LAUNCH_DATE":"2020-06-13","MEAN_MOTION":"15.06353031","NORAD_CAT_ID":"45750","TIME_SYSTEM":"UTC","FILE":"3872915","MEAN_ANOMALY":"284.8338","COUNTRY_CODE":"US","ELEMENT_SET_NO":"999","ECCENTRICITY":"0.00012620","MEAN_MOTION_DOT":"0.00009791","ARG_OF_PERICENTER":"75.2791","SEMIMAJOR_AXIS":"6925.493","RA_OF_ASC_NODE":"15.6279","SITE":"AFETR","INCLINATION":"53.0570","RCS_SIZE":"LARGE","CENTER_NAME":"EARTH","TLE_LINE1":"1 45750U 20038W   23086.76398291  .00009791  00000-0  67614-3 0  9991","OBJECT_TYPE":"PAYLOAD","OBJECT_ID":"2020-038W","BSTAR":"0.00067614000000","REF_FRAME":"TEME","APOAPSIS":"548.232","PERIOD":"95.595","EPHEMERIS_TYPE":"0","OBJECT_NAME":"STARLINK-1391","GP_ID":"228988736","MEAN_ELEMENT_THEORY":"SGP4","DECAY_DATE":null,"TLE_LINE2":"2 45750  53.0570  15.6279 0001262  75.2791 284.8338 15.06353031154019"},{"CENTER_NAME":"EARTH","RCS_SIZE":"LARGE","INCLINATION":"53.0547","SEMIMAJOR_AXIS":"6925.361","SITE":"AFETR","RA_OF_ASC_NODE":"15.3283","MEAN_MOTION_DOT":"0.00025749","ARG_OF_PERICENTER":"92.5345","COUNTRY_CODE":"US","MEAN_ANOMALY":"267.5758","ECCENTRICITY":"0.00009970","ELEMENT_SET_NO":"999","NORAD_CAT_ID":"45751","TIME_SYSTEM":"UTC","FILE":"3872915","MEAN_MOTION":"15.06395983","LAUNCH_DATE":"2020-06-13","MEAN_MOTION_DDOT":"0.0000000000000","CLASSIFICATION_TYPE":"U","EPOCH":"2023-03-27T19:50:24.112608","PERIAPSIS":"546.535","REV_AT_EPOCH":"15402","DECAY_DATE":null,"TLE_LINE2":"2 45751  53.0547  15.3283 0000997  92.5345 267.5758 15.06395983154024","MEAN_ELEMENT_THEORY":"SGP4","OBJECT_NAME":"STARLINK-1464","GP_ID":"228988986","EPHEMERIS_TYPE":"0","PERIOD":"95.592","APOAPSIS":"547.916","REF_FRAME":"TEME","OBJECT_TYPE":"PAYLOAD","OBJECT_ID":"2020-038X","BSTAR":"0.00174140000000","TLE_LINE1":"1 45751U 20038X   23086.82666797  .00025749  00000-0  17414-2 0  9991"}];
